BEIDOU-3 M17            
1 43706U 18093A   26086.20252153 -.00000037  00000+0  00000+0 0  9992
2 43706  54.1688 185.0778 0007874 293.7414  97.3651  1.86228280 50010
BEIDOU-3 M18            
1 43707U 18093B   26085.48163138 -.00000030  00000+0  00000+0 0  9999
2 43707  54.1700 185.0943 0006336 332.6760  27.2992  1.86226396 49990
BEIDOU-3 IGSO-1         
1 44204U 19023A   26085.65707529 -.00000212  00000+0  00000+0 0  9995
2 44204  58.5860  38.4984 0025183 236.7446 263.8673  1.00263805  6382
BEIDOU-2 G8             
1 44231U 19027A   26087.92992051 -.00000267  00000+0  00000+0 0  9997
2 44231   1.4550  74.2784 0011415 275.5010 315.7753  1.00268267 25274
BEIDOU-3 M24            
1 44542U 19061A   26085.55133484 -.00000030  00000+0  00000+0 0  9992
2 44542  54.3970 185.5149 0008194  15.0686 344.9633  1.86228792 44252
BEIDOU-3 M23            
1 44543U 19061B   26086.19599552 -.00000037  00000+0  00000+0 0  9993
2 44543  54.3950 185.4615 0004848   1.0858 343.2659  1.86227116 44266
BEIDOU-3 IGSO-3         
1 44709U 19073A   26086.93821052 -.00000159  00000+0  00000+0 0  9990
2 44709  54.9409 281.7733 0041007 188.7198 171.1984  1.00261892 23647
BEIDOU-3 M22            
1 44793U 19078A   26086.46420429 -.00000031  00000+0  00000+0 0  9998
2 44793  54.0095 302.7034 0007454  41.3303 318.7622  1.86231892 43124
BEIDOU-3 M21            
1 44794U 19078B   26085.53035061 -.00000029  00000+0  00000+0 0  9997
2 44794  53.9841 302.6991 0005380  37.5776 322.4952  1.86227568 43112
BEIDOU-3 M19            
1 44864U 19090A   26087.65347383 -.00000004  00000+0  00000+0 0  9990
2 44864  56.4908  65.4505 0020363 293.6581 246.5173  1.86231189 42736
BEIDOU-3 M20            
1 44865U 19090B   26087.52035325 -.00000003  00000+0  00000+0 0  9996
2 44865  56.4922  65.4894 0017913 305.5253 235.0059  1.86231097 42712
BEIDOU-3 G2             
1 45344U 20017A   26087.91711833 -.00000157  00000+0  00000+0 0  9998
2 45344   2.7041  46.0121 0002556 322.4928 228.0139  1.00271976 22459
BEIDOU-3 G3             
1 45807U 20040A   26087.92318502 -.00000371  00000+0  00000+0 0  9993
2 45807   2.2506  67.1894 0004132 321.0263 241.0214  1.00272788 21263
BEIDOU-3 G4             
1 56564U 23066A   26072.17398353 -.00000111  00000+0  00000+0 0  9991
2 56564   0.6336 312.1088 0002647 153.4351 287.9442  1.00272296 10433
BEIDOU-3 M28            
1 58654U 23207A   26087.21857640 -.00000005  00000+0  00000+0 0  9992
2 58654  55.6833  65.0329 0004982 311.8055  48.1461  1.86229650 15336
BEIDOU-3 M26            
1 58655U 23207B   26087.55302034 -.00000006  00000+0  00000+0 0  9993
2 58655  55.6855  65.0079 0005599 296.0064  63.9292  1.86229581 15321
BEIDOU-3 M25            
1 61186U 24168B   26086.03386642 -.00000033  00000+0  00000+0 0  9992
2 61186  54.5461 305.0968 0003793 320.5769 217.9271  1.86229867 10250
